{
  "type": "FeatureCollection",
  "features": [
    {
      "type": "Feature",
      "properties": {
        "norad_id": 24876,
        "name": "GPS BIIR-2  (PRN 13)",
        "group": "gnss",
        "lat": 55.69439129864912,
        "lon": -172.12616839356056,
        "alt_km": 19950.229951367724,
        "timestamp": "2025-12-27T19:21:58.995700+00:00",
        "meta_object_name": "GPS BIIR-2  (PRN 13)",
        "meta_object_id": "1997-035A",
        "meta_epoch": "2025-12-26T16:37:51.239424",
        "meta_mean_motion": 2.00563658,
        "meta_eccentricity": 0.0096861,
        "meta_inclination": 55.9017,
        "meta_ra_of_asc_node": 105.3231,
        "meta_arg_of_pericenter": 56.9183,
        "meta_mean_anomaly": 304.0095,
        "meta_ephemeris_type": 0,
        "meta_classification_type": "U",
        "meta_norad_cat_id": 24876,
        "meta_element_set_no": 999,
        "meta_rev_at_epoch": 20849,
        "meta_bstar": 0,
        "meta_mean_motion_dot": 2.3e-07,
        "meta_mean_motion_ddot": 0,
        "tle_line1": "1 24876U 97035A   25360.69295416  .00000023  00000+0  00000+0 0  9992",
        "tle_line2": "2 24876  55.9017 105.3231 0096861  56.9183 304.0095  2.00563658208492"
      },
      "geometry": {
        "type": "Point",
        "coordinates": [
          -172.12616839356056,
          55.69439129864912
        ]
      }
    },
    {
      "type": "Feature",
      "properties": {
        "norad_id": 26360,
        "name": "GPS BIIR-4  (PRN 20)",
        "group": "gnss",
        "lat": 2.475111755895627,
        "lon": -155.49202511349154,
        "alt_km": 20140.260694065208,
        "timestamp": "2025-12-27T19:21:58.995746+00:00",
        "meta_object_name": "GPS BIIR-4  (PRN 20)",
        "meta_object_id": "2000-025A",
        "meta_epoch": "2025-12-27T03:31:58.663200",
        "meta_mean_motion": 2.0056635,
        "meta_eccentricity": 0.00388988,
        "meta_inclination": 55.0538,
        "meta_ra_of_asc_node": 26.2552,
        "meta_arg_of_pericenter": 243.3579,
        "meta_mean_anomaly": 177.6691,
        "meta_ephemeris_type": 0,
        "meta_classification_type": "U",
        "meta_norad_cat_id": 26360,
        "meta_element_set_no": 999,
        "meta_rev_at_epoch": 18782,
        "meta_bstar": 0,
        "meta_mean_motion_dot": -5.6e-07,
        "meta_mean_motion_ddot": 0,
        "tle_line1": "1 26360U 00025A   25361.14720675 -.00000056  00000+0  00000+0 0  9993",
        "tle_line2": "2 26360  55.0538  26.2552 0038898 243.3579 177.6691  2.00566350187826"
      },
      "geometry": {
        "type": "Point",
        "coordinates": [
          -155.49202511349154,
          2.475111755895627
        ]
      }
    },
    {
      "type": "Feature",
      "properties": {
        "norad_id": 26407,
        "name": "GPS BIIR-5  (PRN 22)",
        "group": "gnss",
        "lat": 14.982572124139761,
        "lon": -127.16923215376859,
        "alt_km": 20098.02200724431,
        "timestamp": "2025-12-27T19:21:58.995764+00:00",
        "meta_object_name": "GPS BIIR-5  (PRN 22)",
        "meta_object_id": "2000-040A",
        "meta_epoch": "2025-12-27T11:36:30.034080",
        "meta_mean_motion": 2.00568072,
        "meta_eccentricity": 0.0125219,
        "meta_inclination": 54.8877,
        "meta_ra_of_asc_node": 221.9826,
        "meta_arg_of_pericenter": 302.0383,
        "meta_mean_anomaly": 201.6627,
        "meta_ephemeris_type": 0,
        "meta_classification_type": "U",
        "meta_norad_cat_id": 26407,
        "meta_element_set_no": 999,
        "meta_rev_at_epoch": 18650,
        "meta_bstar": 0,
        "meta_mean_motion_dot": 8.1e-07,
        "meta_mean_motion_ddot": 0,
        "tle_line1": "1 26407U 00040A   25361.48368095  .00000081  00000+0  00000+0 0  9990",
        "tle_line2": "2 26407  54.8877 221.9826 0125219 302.0383 201.6627  2.00568072186503"
      },
      "geometry": {
        "type": "Point",
        "coordinates": [
          -127.16923215376859,
          14.982572124139761
        ]
      }
    },
    {
      "type": "Feature",
      "properties": {
        "norad_id": 27663,
        "name": "GPS BIIR-8  (PRN 16)",
        "group": "gnss",
        "lat": 20.423158927862985,
        "lon": 26.62451912414232,
        "alt_km": 20260.24823408355,
        "timestamp": "2025-12-27T19:21:58.995790+00:00",
        "meta_object_name": "GPS BIIR-8  (PRN 16)",
        "meta_object_id": "2003-005A",
        "meta_epoch": "2025-12-27T08:26:38.747040",
        "meta_mean_motion": 2.00570012,
        "meta_eccentricity": 0.0147941,
        "meta_inclination": 54.9202,
        "meta_ra_of_asc_node": 221.7969,
        "meta_arg_of_pericenter": 52.0116,
        "meta_mean_anomaly": 132.4993,
        "meta_ephemeris_type": 0,
        "meta_classification_type": "U",
        "meta_norad_cat_id": 27663,
        "meta_element_set_no": 999,
        "meta_rev_at_epoch": 16786,
        "meta_bstar": 0,
        "meta_mean_motion_dot": 8e-07,
        "meta_mean_motion_ddot": 0,
        "tle_line1": "1 27663U 03005A   25361.35183735  .00000080  00000+0  00000+0 0  9990",
        "tle_line2": "2 27663  54.9202 221.7969 0147941  52.0116 132.4993  2.00570012167861"
      },
      "geometry": {
        "type": "Point",
        "coordinates": [
          26.62451912414232,
          20.423158927862985
        ]
      }
    },
    {
      "type": "Feature",
      "properties": {
        "norad_id": 28190,
        "name": "GPS BIIR-11 (PRN 19)",
        "group": "gnss",
        "lat": -37.494548819039956,
        "lon": -109.90276144663113,
        "alt_km": 20420.03658024265,
        "timestamp": "2025-12-27T19:21:58.995803+00:00",
        "meta_object_name": "GPS BIIR-11 (PRN 19)",
        "meta_object_id": "2004-009A",
        "meta_epoch": "2025-12-27T01:44:09.252384",
        "meta_mean_motion": 2.00560169,
        "meta_eccentricity": 0.01086232,
        "meta_inclination": 54.9727,
        "meta_ra_of_asc_node": 282.6413,
        "meta_arg_of_pericenter": 167.8785,
        "meta_mean_anomaly": 332.9978,
        "meta_ephemeris_type": 0,
        "meta_classification_type": "U",
        "meta_norad_cat_id": 28190,
        "meta_element_set_no": 999,
        "meta_rev_at_epoch": 15949,
        "meta_bstar": 0,
        "meta_mean_motion_dot": -3.3e-07,
        "meta_mean_motion_ddot": 0,
        "tle_line1": "1 28190U 04009A   25361.07232931 -.00000033  00000+0  00000+0 0  9992",
        "tle_line2": "2 28190  54.9727 282.6413 0108623 167.8785 332.9978  2.00560169159492"
      },
      "geometry": {
        "type": "Point",
        "coordinates": [
          -109.90276144663113,
          -37.494548819039956
        ]
      }
    },
    {
      "type": "Feature",
      "properties": {
        "norad_id": 28474,
        "name": "GPS BIIR-13 (PRN 02)",
        "group": "gnss",
        "lat": 11.141298140667825,
        "lon": -20.354687813587226,
        "alt_km": 19973.26710987517,
        "timestamp": "2025-12-27T19:21:58.995816+00:00",
        "meta_object_name": "GPS BIIR-13 (PRN 02)",
        "meta_object_id": "2004-045A",
        "meta_epoch": "2025-12-26T11:00:01.330272",
        "meta_mean_motion": 2.00570057,
        "meta_eccentricity": 0.0171007,
        "meta_inclination": 55.2338,
        "meta_ra_of_asc_node": 331.8542,
        "meta_arg_of_pericenter": 309.865,
        "meta_mean_anomaly": 168.2197,
        "meta_ephemeris_type": 0,
        "meta_classification_type": "U",
        "meta_norad_cat_id": 28474,
        "meta_element_set_no": 999,
        "meta_rev_at_epoch": 15496,
        "meta_bstar": 0,
        "meta_mean_motion_dot": -5.9e-07,
        "meta_mean_motion_ddot": 0,
        "tle_line1": "1 28474U 04045A   25360.45834873 -.00000059  00000+0  00000+0 0  9999",
        "tle_line2": "2 28474  55.2338 331.8542 0171007 309.8650 168.2197  2.00570057154961"
      },
      "geometry": {
        "type": "Point",
        "coordinates": [
          -20.354687813587226,
          11.141298140667825
        ]
      }
    },
    {
      "type": "Feature",
      "properties": {
        "norad_id": 28874,
        "name": "GPS BIIRM-1 (PRN 17)",
        "group": "gnss",
        "lat": -22.539680118501803,
        "lon": -96.78353068799257,
        "alt_km": 19908.387850039704,
        "timestamp": "2025-12-27T19:21:58.995828+00:00",
        "meta_object_name": "GPS BIIRM-1 (PRN 17)",
        "meta_object_id": "2005-038A",
        "meta_epoch": "2025-12-27T11:43:07.333248",
        "meta_mean_motion": 2.00577349,
        "meta_eccentricity": 0.0131147,
        "meta_inclination": 55.0187,
        "meta_ra_of_asc_node": 280.107,
        "meta_arg_of_pericenter": 293.9094,
        "meta_mean_anomaly": 167.2168,
        "meta_ephemeris_type": 0,
        "meta_classification_type": "U",
        "meta_norad_cat_id": 28874,
        "meta_element_set_no": 999,
        "meta_rev_at_epoch": 14839,
        "meta_bstar": 0,
        "meta_mean_motion_dot": -3.1e-07,
        "meta_mean_motion_ddot": 0,
        "tle_line1": "1 28874U 05038A   25361.48827932 -.00000031  00000+0  00000+0 0  9998",
        "tle_line2": "2 28874  55.0187 280.1070 0131147 293.9094 167.2168  2.00577349148391"
      },
      "geometry": {
        "type": "Point",
        "coordinates": [
          -96.78353068799257,
          -22.539680118501803
        ]
      }
    }
  ]
}